[{"OBJECT_NAME":"OBJECT J","OBJECT_ID":"2023-085J","EPOCH":"2026-03-09T22:47:59.920512","MEAN_MOTION":15.31507187,"ECCENTRICITY":0.00067028,"INCLINATION":97.4828,"RA_OF_ASC_NODE":180.1819,"ARG_OF_PERICENTER":41.7877,"MEAN_ANOMALY":318.3875,"EPHEMERIS_TYPE":0,"CLASSIFICATION_TYPE":"U","NORAD_CAT_ID":57012,"ELEMENT_SET_NO":999,"REV_AT_EPOCH":15156,"BSTAR":0.00064525349,"MEAN_MOTION_DOT":0.00019595,"MEAN_MOTION_DDOT":0},{"OBJECT_NAME":"STARLINK-34414","OBJECT_ID":"2025-137AC","EPOCH":"2026-03-09T21:30:53.849376","MEAN_MOTION":15.30213049,"ECCENTRICITY":0.00012426,"INCLINATION":53.159,"RA_OF_ASC_NODE":334.4765,"ARG_OF_PERICENTER":115.3515,"MEAN_ANOMALY":244.7615,"EPHEMERIS_TYPE":0,"CLASSIFICATION_TYPE":"U","NORAD_CAT_ID":64620,"ELEMENT_SET_NO":999,"REV_AT_EPOCH":4076,"BSTAR":0.00092246412,"MEAN_MOTION_DOT":0.00027072,"MEAN_MOTION_DDOT":0}]
